IRIDIUM 135             
1 43070U 17083A   26179.94244422  .00000002  00000+0 -64160-5 0  9993
2 43070  86.3972 317.1005 0002074  92.9463 267.1970 14.34217511445839
IRIDIUM 138             
1 43071U 17083B   26179.89804610  .00000002  00000+0 -61970-5 0  9995
2 43071  86.3986 316.8165 0002074  87.2228 272.9205 14.34217512445818
IRIDIUM 116             
1 43072U 17083C   26179.93610163  .00000018  00000+0 -63613-6 0  9993
2 43072  86.3974 317.0887 0002203 101.3418 258.8025 14.34217622445852
IRIDIUM 130             
1 43073U 17083D   26179.90438728  .00000082  00000+0  22086-4 0  9993
2 43073  86.3982 317.3784 0002021  97.4778 262.6648 14.34217482445794
IRIDIUM 151             
1 43074U 17083E   26179.87901828  .00000016  00000+0 -14083-5 0  9993
2 43074  86.3973 317.1708 0002090  94.2056 265.9379 14.34217582445810
IRIDIUM 134             
1 43075U 17083F   26179.91707208  .00000171  00000+0  54126-4 0  9997
2 43075  86.3974 317.1628 0002160  95.0133 265.1309 14.34216982445780
IRIDIUM 137             
1 43076U 17083G   26179.92975978  .00000009  00000+0 -39499-5 0  9998
2 43076  86.3979 317.2506 0002535 100.7536 259.3946 14.34217589445853
IRIDIUM 141             
1 43077U 17083H   26179.92341645 -.00000005  00000+0 -88613-5 0  9996
2 43077  86.3970 317.0835 0002081  91.6345 268.5089 14.34217431445856
IRIDIUM 153             
1 43078U 17083J   26179.80582691  .00000010  00000+0 -36055-5 0  9990
2 43078  86.3966 285.6132 0002169  91.3871 268.7573 14.34217472446946
IRIDIUM 131             
1 43079U 17083K   26179.91073158  .00000227  00000+0  74094-4 0  9999
2 43079  86.3979 317.2750 0002281  94.3748 265.7709 14.34216633445787
IRIDIUM 144             
1 43249U 18030A   26179.81216743 -.00000001  00000+0 -75027-5 0  9999
2 43249  86.3962 285.5395 0002104  98.7457 261.3977 14.34216539431801
IRIDIUM 149             
1 43250U 18030B   26179.81851192  .00000037  00000+0  61951-5 0  9992
2 43250  86.3964 285.5036 0002290  93.4093 266.7365 14.34217804431829
IRIDIUM 157             
1 43251U 18030C   26179.83753948  .00000309  00000+0  10341-3 0  9992
2 43251  86.3963 285.5486 0002205  94.2683 265.8765 14.34217434431809
IRIDIUM 140             
1 43252U 18030D   26179.85656716  .00000039  00000+0  68593-5 0  9994
2 43252  86.3965 285.5536 0002163  95.2935 264.8508 14.34217223431868
IRIDIUM 145             
1 43253U 18030E   26179.91364437  .00000169  00000+0  53232-4 0  9995
2 43253  86.3964 285.5018 0002179 102.3226 257.8214 14.34221536431805
IRIDIUM 146             
1 43254U 18030F   26179.82485459  .00000058  00000+0  13746-4 0  9997
2 43254  86.3965 285.5514 0002272  97.6150 262.5304 14.34217795431809
IRIDIUM 148             
1 43255U 18030G   26179.86291038 -.00000004  00000+0 -85879-5 0  9990
2 43255  86.3964 285.5790 0002230  95.5450 264.6000 14.34217470431849
IRIDIUM 142             
1 43256U 18030H   26179.90096576  .00000007  00000+0 -44716-5 0  9993
2 43256  86.3959 285.4515 0002179  99.7627 260.3815 14.34217527431819
IRIDIUM 150             
1 43257U 18030J   26179.79948310  .00000085  00000+0  23264-4 0  9992
2 43257  86.3967 285.6106 0002195  95.7993 264.3453 14.34218166431820
IRIDIUM 143             
1 43258U 18030K   26179.85022289  .00000226  00000+0  73500-4 0  9993
2 43258  86.3969 285.6823 0002198  98.0539 262.0906 14.34219191431764
IRIDIUM 161             
1 43478U 18047C   26179.81657482  .00000115  00000+0  28071-4 0  9990
2 43478  86.4483  83.6091 0002500  81.1688 278.9796 14.43278016426812
IRIDIUM 152             
1 43479U 18047D   26179.96248007 -.00000249  00000+0 -96019-4 0  9993
2 43479  86.3953  83.4088 0002175  81.8690 278.2753 14.34216617424178
IRIDIUM 147             
1 43480U 18047E   26179.96882163  .00000084  00000+0  23062-4 0  9995
2 43480  86.3956  83.4118 0002187  87.2255 272.9191 14.34218255424174
IRIDIUM 110             
1 43481U 18047F   26179.97516585  .00000021  00000+0  42068-6 0  9999
2 43481  86.3958  83.5014 0002448  77.9270 282.2200 14.34217492424162
IRIDIUM 162             
1 43482U 18047G   26179.81027460  .00000298  00000+0  82736-4 0  9992
2 43482  86.4479  83.5025 0002266  83.2246 276.9213 14.43280136426807
IRIDIUM 160             
1 43569U 18061A   26179.71169564  .00000029  00000+0  33653-5 0  9992
2 43569  86.3952  51.9781 0002258  85.9911 274.1543 14.34217661415026
IRIDIUM 166             
1 43570U 18061B   26179.73706527  .00000044  00000+0  86465-5 0  9998
2 43570  86.3952  51.9179 0002187  88.9037 271.2409 14.34217809415058
IRIDIUM 158             
1 43571U 18061C   26179.70535248  .00000082  00000+0  22081-4 0  9991
2 43571  86.3949  51.9410 0002133  84.0050 276.1389 14.34217754415012
IRIDIUM 165             
1 43572U 18061D   26179.73072305  .00000045  00000+0  90374-5 0  9995
2 43572  86.3953  51.9770 0002151  89.8903 270.2539 14.34217477415044
IRIDIUM 155             
1 43573U 18061E   26179.69266729  .00000043  00000+0  81224-5 0  9998
2 43573  86.3949  51.8614 0002071  85.2834 274.8599 14.34217804415006
