OBJECT_NAME,OBJECT_ID,EPOCH,MEAN_MOTION,ECCENTRICITY,INCLINATION,RA_OF_ASC_NODE,ARG_OF_PERICENTER,MEAN_ANOMALY,EPHEMERIS_TYPE,CLASSIFICATION_TYPE,NORAD_CAT_ID,ELEMENT_SET_NO,REV_AT_EPOCH,BSTAR,MEAN_MOTION_DOT,MEAN_MOTION_DDOT
IRIDIUM 135,2017-083A,2026-06-28T22:37:07.180608,14.34217511,.00020742,86.3972,317.1005,92.9463,267.1970,0,U,43070,999,44583,-.6415973E-5,.2E-7,0
IRIDIUM 138,2017-083B,2026-06-28T21:33:11.183040,14.34217512,.0002074,86.3986,316.8165,87.2228,272.9205,0,U,43071,999,44581,-.6196963E-5,.2E-7,0
IRIDIUM 116,2017-083C,2026-06-28T22:27:59.180832,14.34217622,.00022035,86.3974,317.0887,101.3418,258.8025,0,U,43072,999,44585,-.636128E-6,.18E-6,0
IRIDIUM 130,2017-083D,2026-06-28T21:42:19.060992,14.34217482,.00020213,86.3982,317.3784,97.4778,262.6648,0,U,43073,999,44579,.22086287E-4,.82E-6,0
IRIDIUM 151,2017-083E,2026-06-28T21:05:47.179392,14.34217582,.00020901,86.3973,317.1708,94.2056,265.9379,0,U,43074,999,44581,-.1408305E-5,.16E-6,0
IRIDIUM 134,2017-083F,2026-06-28T22:00:35.027712,14.34216982,.000216,86.3974,317.1628,95.0133,265.1309,0,U,43075,999,44578,.54125871E-4,.171E-5,0
IRIDIUM 137,2017-083G,2026-06-28T22:18:51.244992,14.34217589,.00025354,86.3979,317.2506,100.7536,259.3946,0,U,43076,999,44585,-.3949908E-5,.9E-7,0
IRIDIUM 141,2017-083H,2026-06-28T22:09:43.181280,14.34217431,.00020817,86.3970,317.0835,91.6345,268.5089,0,U,43077,999,44585,-.8861301E-5,-.5E-7,0
IRIDIUM 153,2017-083J,2026-06-28T19:20:23.445024,14.34217472,.00021692,86.3966,285.6132,91.3871,268.7573,0,U,43078,999,44694,-.3605513E-5,.1E-6,0
IRIDIUM 131,2017-083K,2026-06-28T21:51:27.208512,14.34216633,.00022817,86.3979,317.2750,94.3748,265.7709,0,U,43079,999,44578,.7409441E-4,.227E-5,0
IRIDIUM 144,2018-030A,2026-06-28T19:29:31.265952,14.34216539,.00021049,86.3962,285.5395,98.7457,261.3977,0,U,43249,999,43180,-.7502739E-5,-.1E-7,0
IRIDIUM 149,2018-030B,2026-06-28T19:38:39.429888,14.34217804,.00022902,86.3964,285.5036,93.4093,266.7365,0,U,43250,999,43182,.6195137E-5,.37E-6,0
IRIDIUM 157,2018-030C,2026-06-28T20:06:03.411072,14.34217434,.00022053,86.3963,285.5486,94.2683,265.8765,0,U,43251,999,43180,.10341001E-3,.309E-5,0
IRIDIUM 140,2018-030D,2026-06-28T20:33:27.402624,14.34217223,.00021631,86.3965,285.5536,95.2935,264.8508,0,U,43252,999,43186,.6859333E-5,.39E-6,0
IRIDIUM 145,2018-030E,2026-06-28T21:55:38.873568,14.34221536,.00021798,86.3964,285.5018,102.3226,257.8214,0,U,43253,999,43180,.53231774E-4,.169E-5,0
IRIDIUM 146,2018-030F,2026-06-28T19:47:47.436576,14.34217795,.00022721,86.3965,285.5514,97.6150,262.5304,0,U,43254,999,43180,.13745619E-4,.58E-6,0
IRIDIUM 148,2018-030G,2026-06-28T20:42:35.456832,14.34217470,.00022301,86.3964,285.5790,95.5450,264.6000,0,U,43255,999,43184,-.858787E-5,-.4E-7,0
IRIDIUM 142,2018-030H,2026-06-28T21:37:23.441664,14.34217527,.00021799,86.3959,285.4515,99.7627,260.3815,0,U,43256,999,43181,-.4471598E-5,.7E-7,0
IRIDIUM 150,2018-030J,2026-06-28T19:11:15.339840,14.34218166,.00021954,86.3967,285.6106,95.7993,264.3453,0,U,43257,999,43182,.23264324E-4,.85E-6,0
IRIDIUM 143,2018-030K,2026-06-28T20:24:19.257696,14.34219191,.0002198,86.3969,285.6823,98.0539,262.0906,0,U,43258,999,43176,.73500484E-4,.226E-5,0
IRIDIUM 161,2018-047C,2026-06-28T19:35:52.064448,14.43278016,.00025008,86.4483,83.6091,81.1688,278.9796,0,U,43478,999,42681,.28070897E-4,.115E-5,0
IRIDIUM 152,2018-047D,2026-06-28T23:05:58.278048,14.34216617,.00021751,86.3953,83.4088,81.8690,278.2753,0,U,43479,999,42417,-.96018921E-4,-.249E-5,0
IRIDIUM 147,2018-047E,2026-06-28T23:15:06.188832,14.34218255,.00021879,86.3956,83.4118,87.2255,272.9191,0,U,43480,999,42417,.23061742E-4,.84E-6,0
IRIDIUM 110,2018-047F,2026-06-28T23:24:14.329440,14.34217492,.00024484,86.3958,83.5014,77.9270,282.2200,0,U,43481,999,42416,.420681E-6,.21E-6,0
IRIDIUM 162,2018-047G,2026-06-28T19:26:47.725440,14.43280136,.00022661,86.4479,83.5025,83.2246,276.9213,0,U,43482,999,42680,.82736425E-4,.298E-5,0
IRIDIUM 160,2018-061A,2026-06-28T17:04:50.503296,14.34217661,.00022583,86.3952,51.9781,85.9911,274.1543,0,U,43569,999,41502,.336527E-5,.29E-6,0
IRIDIUM 166,2018-061B,2026-06-28T17:41:22.439328,14.34217809,.00021872,86.3952,51.9179,88.9037,271.2409,0,U,43570,999,41505,.8646536E-5,.44E-6,0
IRIDIUM 158,2018-061C,2026-06-28T16:55:42.454272,14.34217754,.00021337,86.3949,51.9410,84.0050,276.1389,0,U,43571,999,41501,.22081013E-4,.82E-6,0
IRIDIUM 165,2018-061D,2026-06-28T17:32:14.471520,14.34217477,.0002151,86.3953,51.9770,89.8903,270.2539,0,U,43572,999,41504,.9037408E-5,.45E-6,0
IRIDIUM 155,2018-061E,2026-06-28T16:37:26.453856,14.34217804,.00020712,86.3949,51.8614,85.2834,274.8599,0,U,43573,999,41500,.8122356E-5,.43E-6,0
